{
 "generated_at": "2026-07-16T07:22:15Z",
 "sources": [
  {
   "name": "CelesTrak",
   "url": "https://celestrak.org/NORAD/elements/",
   "license": "frei verfügbar; Attribution. Ursprünglich USSPACECOM/Space-Track."
  },
  {
   "name": "GCAT (J. McDowell, planet4589.org)",
   "url": "https://planet4589.org/space/gcat/",
   "license": "CC-BY 4.0"
  }
 ],
 "satellites": [
  {
   "norad": 41556,
   "name": "ZIYUAN 3-02 (ZY 3-02)",
   "intl": "2016-033A",
   "group": "resource",
   "gcat": {
    "class": "C",
    "category": "IMG",
    "owner": "GCDX/ZZWYZ",
    "state": "CN"
   },
   "omm": {
    "OBJECT_NAME": "ZIYUAN 3-02 (ZY 3-02)",
    "OBJECT_ID": "2016-033A",
    "EPOCH": "2026-07-15T22:23:38.055840",
    "MEAN_MOTION": 15.21438132,
    "ECCENTRICITY": 0.00141535,
    "INCLINATION": 97.3827,
    "RA_OF_ASC_NODE": 272.1547,
    "ARG_OF_PERICENTER": 182.3554,
    "MEAN_ANOMALY": 177.7617,
    "EPHEMERIS_TYPE": 0,
    "CLASSIFICATION_TYPE": "U",
    "NORAD_CAT_ID": 41556,
    "ELEMENT_SET_NO": 999,
    "REV_AT_EPOCH": 56235,
    "BSTAR": 0.00012088794,
    "MEAN_MOTION_DOT": 0.00002652,
    "MEAN_MOTION_DDOT": 0
   }
  }
 ]
}
